{
  "63579": {
    "noradId": "63579",
    "tle": [
      "1 63579C 25076L   25364.78659722 -.00022825  00000+0 -82735-3 0  3640",
      "2 63579  43.0007 350.6901 0001474 264.9028  79.9787 15.27575416    18"
    ]
  },
  "63580": {
    "noradId": "63580",
    "tle": [
      "1 63580C 25076M   25364.78520833 -.00008154  00000+0 -29533-3 0  3648",
      "2 63580  43.0025 350.9471 0001468 259.0712   7.2766 15.27585493    10"
    ]
  },
  "63581": {
    "noradId": "63581",
    "tle": [
      "1 63581C 25076N   25364.78868056 -.00014565  00000+0 -52760-3 0  3642",
      "2 63581  43.0005 350.6390 0001355 260.7594 144.9775 15.27589641    16"
    ]
  },
  "63582": {
    "noradId": "63582",
    "tle": [
      "1 63582C 25076P   25364.78451389 -.00004701  00000+0 -17030-3 0  3642",
      "2 63582  43.0021 350.5760 0001399 253.8545 164.3180 15.27577379    13"
    ]
  },
  "63583": {
    "noradId": "63583",
    "tle": [
      "1 63583C 25076Q   25364.78659722 -.00014213  00000+0 -51481-3 0  3641",
      "2 63583  43.0030 350.4789 0001451 260.0096 205.0123 15.27591502    18"
    ]
  },
  "63584": {
    "noradId": "63584",
    "tle": [
      "1 63584C 25076R   25364.78590278 -.00013558  00000+0 -49115-3 0  3644",
      "2 63584  43.0032 350.3805 0001387 259.9461 243.6990 15.27586144    16"
    ]
  },
  "63585": {
    "noradId": "63585",
    "tle": [
      "1 63585C 25076S   25364.78381944 -.00034430  00000+0 -12467-2 0  3644",
      "2 63585  43.0030 350.4112 0001113 243.3665 241.6769 15.27623054    11"
    ]
  },
  "63586": {
    "noradId": "63586",
    "tle": [
      "1 63586C 25076T   25364.78243056 -.00005670  00000+0 -20540-3 0  3642",
      "2 63586  43.0014 350.8771 0001278 248.1264  38.3050 15.27579611    12"
    ]
  },
  "63587": {
    "noradId": "63587",
    "tle": [
      "1 63587C 25076U   25364.78590278 -.00007554  00000+0 -27359-3 0  3642",
      "2 63587  43.0010 350.8229 0001402 261.7429  57.9480 15.27587010    16"
    ]
  },
  "63588": {
    "noradId": "63588",
    "tle": [
      "1 63588C 25076V   25364.78381944 -.00003656  00000+0 -13245-3 0  3649",
      "2 63588  43.0012 350.8522 0001474 268.0376  33.1285 15.27573919    17"
    ]
  },
  "63589": {
    "noradId": "63589",
    "tle": [
      "1 63589C 25076W   25364.78798611  .00000223  00000+0  80706-5 0  3646",
      "2 63589  43.0033 351.0485 0001097 247.2902 344.8316 15.27573283    18"
    ]
  },
  "63590": {
    "noradId": "63590",
    "tle": [
      "1 63590C 25076X   25364.79006944 -.00011087  00000+0 -40139-3 0  3646",
      "2 63590  43.0032 351.1625 0001237 253.7504 293.2050 15.27603529    11"
    ]
  },
  "63591": {
    "noradId": "63591",
    "tle": [
      "1 63591C 25076Y   25364.78868056 -.00004626  00000+0 -16757-3 0  3646",
      "2 63591  43.0008 350.5642 0001367 256.4747 177.5680 15.27577739    16"
    ]
  },
  "63592": {
    "noradId": "63592",
    "tle": [
      "1 63592C 25076Z   25364.78381944 -.00009450  00000+0 -34227-3 0  3645",
      "2 63592  43.0030 350.9992 0001398 259.2784 338.2033 15.27588145    11"
    ]
  },
  "63593": {
    "noradId": "63593",
    "tle": [
      "1 63593C 25076AA  25364.78868056 -.00005558  00000+0 -20134-3 0  3647",
      "2 63593  43.0003 350.6498 0001463 262.1039 136.5650 15.27581733    19"
    ]
  },
  "63594": {
    "noradId": "63594",
    "tle": [
      "1 63594C 25076AB  25364.78868056  .00009281  00000+0  33618-3 0  3644",
      "2 63594  43.0031 351.0046 0001357 251.1966 358.9146 15.27568789    10"
    ]
  },
  "63595": {
    "noradId": "63595",
    "tle": [
      "1 63595C 25076AC  25364.78173611 -.00010907  00000+0 -39508-3 0  3644",
      "2 63595  43.0005 350.6814 0001260 253.6433  85.6139 15.27586877    13"
    ]
  },
  "63634": {
    "noradId": "63634",
    "tle": [
      "1 63634C 25083A   25364.78381944  .00002832  00000+0  10251-3 0  3646",
      "2 63634  43.0002  34.7016 0001389 264.4586 129.9840 15.27594711    16"
    ]
  },
  "63635": {
    "noradId": "63635",
    "tle": [
      "1 63635C 25083B   25364.78868056  .00021479  00000+0  77795-3 0  3645",
      "2 63635  43.0036  34.1199 0001016 262.8044  31.8612 15.27558022    11"
    ]
  },
  "63636": {
    "noradId": "63636",
    "tle": [
      "1 63636C 25083C   25364.78173611 -.00060754  00000+0 -22004-2 0  3645",
      "2 63636  43.0007  34.7654 0001332 268.7601  92.9862 15.27640897    14"
    ]
  },
  "63637": {
    "noradId": "63637",
    "tle": [
      "1 63637C 25083D   25364.78451389  .00018454  00000+0  66835-3 0  3646",
      "2 63637  43.0020  34.0421 0000819 250.2662  63.9083 15.27564069    16"
    ]
  },
  "63638": {
    "noradId": "63638",
    "tle": [
      "1 63638C 25083E   25364.78243056  .00024133  00000+0  87401-3 0  3640",
      "2 63638  43.0036  34.1803 0001245 259.3417 346.7780 15.27558010    16"
    ]
  },
  "63639": {
    "noradId": "63639",
    "tle": [
      "1 63639C 25083F   25364.78381944  .00026982  00000+0  97746-3 0  3647",
      "2 63639  43.0038  34.3730 0001422 270.3291 258.5448 15.27546058    10"
    ]
  },
  "63640": {
    "noradId": "63640",
    "tle": [
      "1 63640C 25083G   25364.78381944  .00017988  00000+0  65140-3 0  3648",
      "2 63640  43.0007  34.7403 0001355 257.7142 122.5462 15.27566404    11"
    ]
  },
  "63641": {
    "noradId": "63641",
    "tle": [
      "1 63641C 25083H   25364.78659722  .00022527  00000+0  81597-3 0  3640",
      "2 63641  43.0035  34.1966 0001103 280.2139 334.6894 15.27555010    15"
    ]
  },
  "63642": {
    "noradId": "63642",
    "tle": [
      "1 63642C 25083J   25364.78173611  .00012494  00000+0  45245-3 0  3641",
      "2 63642  43.0002  34.6295 0001167 254.0619 164.2823 15.27572079    15"
    ]
  },
  "63643": {
    "noradId": "63643",
    "tle": [
      "1 63643C 25083K   25364.78451389  .00022952  00000+0  83151-3 0  3641",
      "2 63643  43.0027  34.0887 0001203 270.5345  22.4492 15.27548563    12"
    ]
  },
  "63644": {
    "noradId": "63644",
    "tle": [
      "1 63644C 25083L   25364.78312500  .00017023  00000+0  61673-3 0  3641",
      "2 63644  43.0005  34.6036 0001209 262.1235 170.9710 15.27552781    11"
    ]
  },
  "63645": {
    "noradId": "63645",
    "tle": [
      "1 63645C 25083M   25364.78868056  .00025963  00000+0  94031-3 0  3640",
      "2 63645  43.0033  34.3964 0001193 264.3693 270.0400 15.27555465    14"
    ]
  },
  "63646": {
    "noradId": "63646",
    "tle": [
      "1 63646C 25083N   25364.78868056  .00022673  00000+0  82123-3 0  3645",
      "2 63646  43.0035  34.2091 0001268 274.1497 338.0683 15.27555259    10"
    ]
  },
  "63647": {
    "noradId": "63647",
    "tle": [
      "1 63647C 25083P   25364.78659722  .00011388  00000+0  41242-3 0  3642",
      "2 63647  43.0002  34.6692 0001161 280.0409 136.7494 15.27570588    12"
    ]
  },
  "63648": {
    "noradId": "63648",
    "tle": [
      "1 63648C 25083Q   25364.78868056  .00021657  00000+0  78451-3 0  3647",
      "2 63648  43.0032  34.0967 0001192 261.8699  39.8956 15.27553147    15"
    ]
  },
  "63649": {
    "noradId": "63649",
    "tle": [
      "1 63649C 25083R   25364.78520833  .00018713  00000+0  67777-3 0  3644",
      "2 63649  43.0019  34.0154 0001073 263.1287  61.9562 15.27560489    11"
    ]
  },
  "63650": {
    "noradId": "63650",
    "tle": [
      "1 63650C 25083S   25364.78729167  .00023052  00000+0  83491-3 0  3640",
      "2 63650  43.0034  34.2904 0001387 265.7956 310.4870 15.27556882    10"
    ]
  },
  "63651": {
    "noradId": "63651",
    "tle": [
      "1 63651C 25083T   25364.78868056 -.00084827  00000+0 -30720-2 0  3647",
      "2 63651  43.0035  34.2251 0001133 270.0748 335.0650 15.27667420    14"
    ]
  },
  "63652": {
    "noradId": "63652",
    "tle": [
      "1 63652C 25083U   25364.78798611  .00023872  00000+0  86464-3 0  3645",
      "2 63652  43.0037  34.1241 0001390 247.0589  36.7366 15.27555538    12"
    ]
  },
  "63653": {
    "noradId": "63653",
    "tle": [
      "1 63653C 25083V   25364.78243056  .00011949  00000+0  43283-3 0  3648",
      "2 63653  43.0011  34.5685 0001187 271.5861 171.8180 15.27564766    18"
    ]
  },
  "63654": {
    "noradId": "63654",
    "tle": [
      "1 63654C 25083W   25364.78381944  .00016325  00000+0  59157-3 0  3648",
      "2 63654  43.0017  34.5259 0001041 245.5086 219.7428 15.27548400    15"
    ]
  },
  "63655": {
    "noradId": "63655",
    "tle": [
      "1 63655C 25083X   25364.78520833  .00012174  00000+0  44091-3 0  3640",
      "2 63655  43.0014  34.5363 0001334 261.0473 204.7209 15.27567729    13"
    ]
  },
  "63656": {
    "noradId": "63656",
    "tle": [
      "1 63656C 25083Y   25364.78798611  .00024103  00000+0  87295-3 0  3640",
      "2 63656  43.0035  34.3011 0001308 262.3415 310.6898 15.27557009    17"
    ]
  },
  "63657": {
    "noradId": "63657",
    "tle": [
      "1 63657C 25083Z   25364.78451389  .00025871  00000+0  93715-3 0  3646",
      "2 63657  43.0036  34.2171 0001177 264.8560 331.5185 15.27550019    12"
    ]
  },
  "63658": {
    "noradId": "63658",
    "tle": [
      "1 63658C 25083AA  25364.78173611  .00010546  00000+0  38193-3 0  3648",
      "2 63658  43.0018  34.5197 0001317 263.6964 197.1030 15.27571019    13"
    ]
  },
  "63659": {
    "noradId": "63659",
    "tle": [
      "1 63659C 25083AB  25364.78381944  .00024018  00000+0  87004-3 0  3643",
      "2 63659  43.0026  37.7532 0000807 253.4284 341.7353 15.27550794    18"
    ]
  },
  "63660": {
    "noradId": "63660",
    "tle": [
      "1 63660C 25083AC  25364.78312500  .00024038  00000+0  87088-3 0  3641",
      "2 63660  43.0029  34.1057 0001255 270.8423   7.4272 15.27546873    11"
    ]
  },
  "63661": {
    "noradId": "63661",
    "tle": [
      "1 63661C 25083AD  25364.78312500  .00027511  00000+0  99690-3 0  3643",
      "2 63661  43.0028  34.4663 0001515 258.3996 231.2521 15.27536125    15"
    ]
  }
}